OBJECT_NAME,OBJECT_ID,EPOCH,MEAN_MOTION,ECCENTRICITY,INCLINATION,RA_OF_ASC_NODE,ARG_OF_PERICENTER,MEAN_ANOMALY,EPHEMERIS_TYPE,CLASSIFICATION_TYPE,NORAD_CAT_ID,ELEMENT_SET_NO,REV_AT_EPOCH,BSTAR,MEAN_MOTION_DOT,MEAN_MOTION_DDOT
SAUDISAT 1C (SO-50),2002-058C,2026-06-05T02:02:07.325664,14.83019464,.00754947,64.5503,166.4291,264.6787,94.5702,0,U,27607,999,26266,.14034983E-3,.1044E-4,0
SAUDISAT 2,2004-025F,2026-06-05T06:47:38.556096,14.56676563,.00241872,98.5506,155.9575,336.1043,23.9030,0,U,28371,999,16401,.78523561E-4,.302E-5,0
SAUDISAT 3,2007-012B,2026-06-04T17:54:36.819072,14.71418148,.001325,98.1450,106.1392,267.0879,92.8811,0,U,31118,999,2591,.64258E-4,.347E-5,0
PISAT,2016-059B,2026-06-05T07:00:13.032000,14.68961871,.00276237,97.8178,157.2560,242.2192,117.6213,0,U,41784,999,51799,.17358247E-3,.975E-5,0
FLYING LAPTOP,2017-042G,2026-06-05T07:41:00.646368,15.01065347,.00188758,97.4646,312.3137,160.5709,199.6240,0,U,42831,999,48467,.33317316E-3,.4218E-4,0
SALSAT,2020-068K,2026-06-04T23:29:13.611264,15.29615280,.0009245,97.8851,158.3021,356.4519,3.6652,0,U,46495,999,31349,.3129959E-3,.8911E-4,0
